E-ST@R-II               
1 41459U 16025D   21102.85384485  .00000622  00000-0  35031-4 0  9994
2 41459  98.1287 235.1987 0159766 283.6964  74.6528 15.07703148272534
AAUSAT 4                
1 41460U 16025E   21102.81490689  .00002295  00000-0  11166-3 0  9996
2 41460  98.1287 238.7097 0147118 268.5156  89.9210 15.10597691272805
BEESAT-4                
1 41619U 16040W   21102.46623552  .00001937  00000-0  79894-4 0  9992
2 41619  97.2769 160.3931 0010268 195.5531 164.5393 15.25198515254950
CANX-7                  
1 41788U 16059F   21102.81169482  .00011081  00000-0  13125-2 0  9999
2 41788  98.2528 205.5273 0025499  68.6649 291.7313 14.84507309244126
RAVAN                   
1 41849U 16067B   21101.91252609 -.00000087  00000-0 -19878-5 0  9990
2 41849  97.9540 223.3340 0008511 333.5339  26.5447 14.98961799241326
CELTEE 1                
1 41850U 16067C   21102.59800516  .00000628  00000-0  59287-4 0  9999
2 41850  97.9452 220.7950 0007809 340.8380  19.2547 14.97404087241268
OPTICUBE 04             
1 41851U 16067D   21102.58609950  .00000172  00000-0  20184-4 0  9996
2 41851  97.9435 220.2202 0008230 341.8899  18.2028 14.97073638241234
AEROCUBE 8D             
1 41852U 16067E   21102.59660521  .00000692  00000-0  65150-4 0  9998
2 41852  97.9439 220.0941 0008734 343.1016  16.9913 14.97159784241215
AEROCUBE 8C             
1 41853U 16067F   21102.56822673 -.00000201  00000-0 -12082-4 0  9998
2 41853  97.9439 219.9404 0009604 343.4933  16.5974 14.97128572241208
PROMETHEUS 2-1          
1 41854U 16067G   21102.59594240  .00000826  00000-0  75938-4 0  9998
2 41854  97.9444 220.5155 0009237 341.5585  18.5301 14.97580955241236
PROMETHEUS 2-3          
1 41855U 16067H   21102.32680524  .00000740  00000-0  68609-4 0  9993
2 41855  97.9446 220.2907 0009500 342.0465  18.0419 14.97595829241193
INS-1B                  
1 41954U 17008G   21102.43890673  .00001829  00000-0  74082-4 0  9990
2 41954  97.3136 166.9854 0007853 335.6285  24.4581 15.25907914230943
BGUSAT                  
1 41999U 17008BD  21102.22623968  .00003234  00000-0  11576-3 0  9997
2 41999  97.3294 172.8363 0006441 342.6242  17.4777 15.29474001230580
DIDO-2                  
1 42000U 17008BE  21102.42758047  .00001072  00000-0  45489-4 0  9999
2 42000  97.3139 167.2963 0007934 357.7043   2.4157 15.25215855230324
PEASSS                  
1 42015U 17008BV  21102.42138175  .00001642  00000-0  65361-4 0  9993
2 42015  97.3175 169.5699 0005861   2.2523 357.8742 15.26637378230947
AL-FARABI 1             
1 42016U 17008BW  21102.44990465  .00002146  00000-0  81789-4 0  9996
2 42016  97.3218 171.2202 0005525   1.4626 358.6628 15.27776766231150
NAYIF-1 (EO-88)         
1 42017U 17008BX  21102.41983462  .00002153  00000-0  81903-4 0  9999
2 42017  97.3211 171.1988 0005562   0.4191 359.7052 15.27827573231179
UCLSAT                  
1 42765U 17036A   21102.56753597  .00001725  00000-0  72688-4 0  9994
2 42765  97.2575 154.1934 0012340  56.6654 303.5763 15.24585130212130
LITUANICASAT-2          
1 42768U 17036D   21102.57651921  .00003040  00000-0  12126-3 0  9998
2 42768  97.2647 154.8052 0014949  45.6043 314.6417 15.25830543211420
AALTO-1                 
1 42775U 17036L   21102.43740393  .00001107  00000-0  50566-4 0  9996
2 42775  97.2551 150.9633 0014913  52.5500 307.7091 15.22508023211153
URSA MAIOR              
1 42776U 17036M   21102.58233495  .00001187  00000-0  53624-4 0  9999
2 42776  97.2564 151.5320 0014681  51.7026 308.5529 15.22755118211192
COMPASS 2               
1 42777U 17036N   21102.39446477  .00002379  00000-0  97001-4 0  9996
2 42777  97.2629 154.8590 0012909  48.5836 311.6509 15.25323969211342
DIAMOND RED             
1 42783U 17036U   21102.58327212  .00001323  00000-0  57896-4 0  9995
2 42783  97.2579 153.1340 0013174  59.1026 301.1505 15.23669594211280
PEGASUS                 
1 42784U 17036V   21102.52942085  .00001601  00000-0  68463-4 0  9992
2 42784  97.2584 153.7145 0012942  57.9061 302.3432 15.24180362211311
DIAMOND GREEN           
1 42785U 17036W   21102.58211755  .00001407  00000-0  61372-4 0  9998
2 42785  97.2582 153.1782 0013098  59.9755 300.2780 15.23682304211355
DIAMOND BLUE            
1 42786U 17036X   21102.58119053  .00001395  00000-0  60893-4 0  9990
2 42786  97.2581 153.1706 0012937  60.2186 300.0336 15.23677904211350
NUDTSAT                 
1 42787U 17036Y   21102.61670523  .00002538  00000-0  10136-3 0  9993
2 42787  97.2625 155.9914 0012345  50.3811 309.8516 15.25980551211296
SUCHAI                  
1 42788U 17036Z   21102.56159717  .00001920  00000-0  79809-4 0  9992
2 42788  97.2593 154.6502 0012385  55.7586 304.4823 15.24918072211449
SKCUBE                  
1 42789U 17036AA  21102.57982264  .00001777  00000-0  74603-4 0  9992
2 42789  97.2586 154.4110 0012314  56.2245 304.0164 15.24677796211354
VZLUSAT-1               
1 42790U 17036AB  21102.21636359  .00002316  00000-0  92794-4 0  9997
2 42790  97.2615 155.5936 0011579  54.4930 305.7387 15.25956239211381
ROBUSTA-1B              
1 42792U 17036AD  21102.09936374  .00001693  00000-0  70715-4 0  9991
2 42792  97.2589 154.2991 0011923  57.9474 302.2920 15.24905974211311
CICERO 6                
1 42793U 17036AE  21102.57277626  .00001214  00000-0  53064-4 0  9990
2 42793  97.2562 153.7028 0011446  60.1468 300.0905 15.23887344211405
D-SAT                   
1 42794U 17036AF  21102.81569692  .00000529  00000-0  50391-4 0  9993
2 42794  97.4669 126.1772 0127310  85.3966 276.1782 14.91507039207311
CORVUS BC2              
1 42846U 17042X   21102.58637370  .00000317  00000-0  36174-4 0  9999
2 42846  97.4827 337.9424 0009765   8.5536 351.5849 14.92262735204012
CORVUS BC1              
1 42847U 17042Y   21102.89690578  .00000023  00000-0  74324-5 0  9997
2 42847  97.4829 338.4630 0009355   7.1091 353.0259 14.92365723204064
MIRATA                  
1 43015U 17073C   21102.70490414  .00001002  00000-0  81173-4 0  9993
2 43015  97.7082   9.5182 0251016 151.3984 210.1269 14.80500346183485
MAKERSAT 0              
1 43016U 17073D   21102.70751855  .00000684  00000-0  57401-4 0  9995
2 43016  97.7117   9.5982 0254582 153.3457 208.1110 14.79823387183440
DELLINGR (RBLE)         
1 43021U 98067NJ  21102.67325305  .00088978  14276-4  24226-3 0  9990
2 43021  51.6264 173.3704 0004172  14.8632 345.2497 15.94141358194121
AEROCUBE 7B (OCSD B)    
1 43042U 17071F   21102.36264168  .00007571  00000-0  15366-3 0  9995
2 43042  51.6382  36.3811 0004485  70.3921 289.7551 15.47396161188596
AEROCUBE 7C (OCSD C)    
1 43043U 17071G   21102.24922616  .00006538  00000-0  13468-3 0  9995
2 43043  51.6375  37.1327 0004719  72.9902 287.1603 15.47216752188549
CHEFSAT                 
1 43044U 17071H   21102.30655652  .00018960  00000-0  26238-3 0  9997
2 43044  51.6366   7.1657 0003814  99.5735 260.5688 15.57136212188953
ASGARDIA 1              
1 43049U 17071N   21102.50566027  .00006283  00000-0  13011-3 0  9991
2 43049  51.6395  35.2117 0002783  90.7452 269.3854 15.47136724188595
ISARA                   
1 43050U 17071P   21102.44751262  .00014905  00000-0  22706-3 0  9994
2 43050  51.6348  12.4042 0002487 110.6179 249.5079 15.54718194188895
PROPCUBE 2 (FAUNA)      
1 43052U 17071R   21102.05571275  .00006589  00000-0  13243-3 0  9992
2 43052  51.6383  34.4629 0002715  88.4263 271.7036 15.47927228188556
CORVUS BC3              
1 43118U 18004H   21102.50301080  .00001107  00000-0  48457-4 0  9994
2 43118  97.4076 175.8432 0011779  83.5975 276.6603 15.24070815180534
MICROMAS-2A             
1 43131U 18004W   21102.46884307  .00002969  00000-0  11493-3 0  9998
2 43131  97.4147 178.8206 0010144  80.1927 280.0456 15.26936445180699
SPACEBEE-4              
1 43139U 18004AE  21102.51745508  .00004198  00000-0  15181-3 0  9995
2 43139  97.4204 180.9559 0009357  80.2987 279.9310 15.28958529180816
SPACEBEE-3              
1 43140U 18004AF  21102.17005267  .00005178  00000-0  17802-3 0  9991
2 43140  97.4234 181.9074 0008792  79.1412 281.0817 15.30502684180834
SPACEBEE-2              
1 43141U 18004AG  21102.46442854  .00005819  00000-0  19643-3 0  9998
2 43141  97.4249 182.7011 0008598  77.2479 282.9722 15.31042606180904
SPACEBEE-1              
1 43142U 18004AH  21102.66735986  .00006644  00000-0  21951-3 0  9994
2 43142  97.4259 183.4031 0008417  76.0966 284.1211 15.31687067180952
CICERO 7                
1 43143U 18004AJ  21102.47315696  .00002667  00000-0  10387-3 0  9998
2 43143  97.4121 178.9084 0008577  88.4240 271.7982 15.26835533180715
GOMX-4B                 
1 43196U 18015E   21102.58560206  .00000637  00000-0  28477-4 0  9994
2 43196  97.4738 235.6850 0019657 129.0259 231.2732 15.24831932177472
GOMX-4A                 
1 43197U 18015F   21102.83085407  .00001281  00000-0  53603-4 0  9993
2 43197  97.4719 236.1395 0019839 129.3589  24.0214 15.25260362177537
TEMPEST-D               
1 43547U 98067NV  21102.62786652  .00050517  00000-0  18669-3 0  9992
2 43547  51.6332 226.7026 0005056 348.2659  11.8227 15.87625858156494
AEROCUBE 12A            
1 43556U 18046C   21102.43518910  .00002345  00000-0  88184-4 0  9996
2 43556  51.6391 107.5550 0007281 289.5439  70.4756 15.31361617153160
AEROCUBE 12B            
1 43557U 18046D   21102.63599304  .00001869  00000-0  73875-4 0  9996
2 43557  51.6390 108.1174 0007399 289.0358  70.9821 15.30828946153120
SURFSAT                 
1 43614U 18070B   21102.47448994  .00004219  00000-0  10073-3 0  9999
2 43614  93.0238 278.5553 0011727 257.1995 102.7950 15.41502195144507
CP7 (DAVE)              
1 43615U 18070C   21102.47989563  .00004012  00000-0  96650-4 0  9999
2 43615  93.0241 278.5217 0011919 257.1887 102.8037 15.41235458144492
ELFIN-B                 
1 43616U 18070D   21102.55451986  .00006617  00000-0  14633-3 0  9995
2 43616  93.0199 278.6694 0011946 255.0012 104.9922 15.43769183144600
